H1 CPF 01  gfz 2022 02 20 01  5511 tandemx   
H2 1003001  6202 36605    2022 02 20 00 59 42 2022 02 25 00 00 42   120 1 1  0 0 0
H9
10 0 59630  69822.000000  0   -6265867.400   2077616.076   1961426.544
10 0 59630  69942.000000  0   -6397275.212   2313557.205   1079679.826
10 0 59630  70062.000000  0   -6413044.276   2510336.650    178918.766
10 0 59630  70182.000000  0   -6313674.335   2662511.135   -724994.084
10 0 59630  70302.000000  0   -6101786.544   2765455.255  -1616154.842
10 0 59630  70422.000000  0   -5782057.211   2815478.672  -2478906.620
10 0 59630  70542.000000  0   -5361109.660   2809923.741  -3298122.452
10 0 59630  70662.000000  0   -4847368.095   2747240.227  -4059474.230
10 0 59630  70782.000000  0   -4250878.888   2627036.895  -4749683.095
10 0 59630  70902.000000  0   -3583103.682   2450108.566  -5356746.433
10 0 59630  71022.000000  0   -2856690.965   2218439.337  -5870137.623
10 0 59630  71142.000000  0   -2085231.997   1935182.362  -6280978.731
10 0 59630  71262.000000  0   -1283002.966   1604615.824  -6582183.125
10 0 59630  71382.000000  0    -464701.921   1232076.924  -6768565.231
10 0 59630  71502.000000  0     354815.949    823875.441  -6836919.925
10 0 59630  71622.000000  0    1160800.500    387188.929  -6786072.163
10 0 59630  71742.000000  0    1938866.997    -70060.926  -6616896.481
10 0 59630  71862.000000  0    2675246.821   -539348.465  -6332302.436
10 0 59630  71982.000000  0    3357026.934  -1011698.440  -5937190.611
10 0 59630  72102.000000  0    3972374.119  -1477852.583  -5438376.042
10 0 59630  72222.000000  0    4510741.825  -1928446.838  -4844482.874
10 0 59630  72342.000000  0    4963056.309  -2354197.306  -4165806.476
10 0 59630  72462.000000  0    5321876.851  -2746089.690  -3414145.341
10 0 59630  72582.000000  0    5581527.961  -3095568.913  -2602604.321
10 0 59630  72702.000000  0    5738199.343  -3394724.689  -1745370.363
10 0 59630  72822.000000  0    5790009.975  -3636468.394   -857465.610
10 0 59630  72942.000000  0    5737035.195  -3814697.508     45518.428
10 0 59630  73062.000000  0    5581294.420  -3924442.251    947700.386
10 0 59630  73182.000000  0    5326699.816  -3961991.896   1833196.727
10 0 59630  73302.000000  0    4978965.303  -3924994.372   2686411.532
10 0 59630  73422.000000  0    4545479.198  -3812527.606   3492318.740
10 0 59630  73542.000000  0    4035145.624  -3625141.833   4236732.808
10 0 59630  73662.000000  0    3458197.522  -3364872.450   4906563.045
10 0 59630  73782.000000  0    2825984.278  -3035221.337   5490045.080
10 0 59630  73902.000000  0    2150742.965  -2641108.143   5976945.370
10 0 59630  74022.000000  0    1445356.009  -2188793.624   6358736.482
10 0 59630  74142.000000  0     723101.717  -1685777.036   6628740.368
10 0 59630  74262.000000  0      -2597.632  -1140668.987   6782239.224
10 0 59630  74382.000000  0    -718425.377   -563042.114   6816552.633
10 0 59630  74502.000000  0   -1411413.813     36737.523   6731080.835
10 0 59630  74622.000000  0   -2069178.205    647696.106   6527314.647
10 0 59630  74742.000000  0   -2680137.649   1258452.145   6208811.231
10 0 59630  74862.000000  0   -3233719.715   1857427.562   5781136.040
10 0 59630  74982.000000  0   -3720546.052   2433066.938   5251772.032
10 0 59630  75102.000000  0   -4132596.065   2974062.043   4629995.014
10 0 59630  75222.000000  0   -4463344.663   3469576.326   3926716.115
10 0 59630  75342.000000  0   -4707871.880   3909464.726   3154293.626
10 0 59630  75462.000000  0   -4862940.462   4284484.690   2326316.688
10 0 59630  75582.000000  0   -4927040.318   4586494.306   1457364.719
10 0 59630  75702.000000  0   -4900397.581   4808630.665    562744.923
10 0 59630  75822.000000  0   -4784948.671   4945462.809   -341784.420
10 0 59630  75942.000000  0   -4584280.700   4993118.237  -1240300.176
10 0 59630  76062.000000  0   -4303535.835   4949377.852  -2117005.443
10 0 59630  76182.000000  0   -3949285.008   4813736.153  -2956514.705
10 0 59630  76302.000000  0   -3529374.841   4587425.831  -3744129.912
10 0 59630  76422.000000  0   -3052750.664   4273406.863  -4466098.636
10 0 59630  76542.000000  0   -2529262.551   3876322.065  -5109850.241
10 0 59630  76662.000000  0   -1969459.851   3402422.181  -5664207.306
10 0 59630  76782.000000  0   -1384377.480   2859460.986  -6119571.473
10 0 59630  76902.000000  0    -785318.072   2256561.837  -6468079.171
10 0 59630  77022.000000  0    -183635.522   1604060.654  -6703725.210
10 0 59630  77142.000000  0     409475.902    913328.292  -6822455.646
10 0 59630  77262.000000  0     983184.408    196575.187  -6822230.676
10 0 59630  77382.000000  0    1527214.615   -533360.507  -6703056.157
10 0 59630  77502.000000  0    2032026.730  -1263237.583  -6466981.869
10 0 59630  77622.000000  0    2488980.111  -1979645.455  -6118070.298
10 0 59630  77742.000000  0    2890479.681  -2669244.358  -5662334.573
10 0 59630  77862.000000  0    3230103.491  -3319011.123  -5107647.144
10 0 59630  77982.000000  0    3502708.888  -3916486.315  -4463613.664
10 0 59630  78102.000000  0    3704512.660  -4450013.999  -3741416.192
10 0 59630  78222.000000  0    3833146.684  -4908972.704  -2953629.662
10 0 59630  78342.000000  0    3887687.785  -5283993.951  -2114010.341
10 0 59630  78462.000000  0    3868657.774  -5567161.342  -1237257.514
10 0 59630  78582.000000  0    3777994.535  -5752183.569   -338754.850
10 0 59630  78702.000000  0    3618993.676  -5834538.034    565704.894
10 0 59630  78822.000000  0    3396221.874  -5811580.113   1460204.409
10 0 59630  78942.000000  0    3115404.903  -5682615.284   2328991.800
10 0 59630  79062.000000  0    2783290.713  -5448929.810   3156767.009
10 0 59630  79182.000000  0    2407493.075  -5113782.609   3928957.633
10 0 59630  79302.000000  0    1996320.715  -4682357.780   4631980.305
10 0 59630  79422.000000  0    1558594.841  -4161678.424   5253482.081
10 0 59630  79542.000000  0    1103460.798  -3560484.831   5782557.361
10 0 59630  79662.000000  0     640195.966  -2889078.819   6209936.430
10 0 59630  79782.000000  0     178020.437  -2159140.022   6528141.117
10 0 59630  79902.000000  0    -274085.471  -1383518.271   6731608.662
10 0 59630  80022.000000  0    -707554.325   -576005.641   6816784.194
10 0 59630  80142.000000  0   -1114392.795    248910.376   6782179.686
10 0 59630  80262.000000  0   -1487328.543   1076306.851   6628398.066
10 0 59630  80382.000000  0   -1819939.854   1891094.669   6358123.089
10 0 59630  80502.000000  0   -2106766.806   2678293.048   5976075.588
10 0 59630  80622.000000  0   -2343401.665   3423305.689   5488935.751
10 0 59630  80742.000000  0   -2526557.451   4112193.606   4905232.846
10 0 59630  80862.000000  0   -2654114.328   4731941.244   4235202.378
10 0 59630  80982.000000  0   -2725141.489   5270709.631   3490610.962
10 0 59630  81102.000000  0   -2739894.029   5718070.859   2684551.161
10 0 59630  81222.000000  0   -2699784.666   6065217.664   1831210.240
10 0 59630  81342.000000  0   -2607331.253   6305143.955    945617.015
10 0 59630  81462.000000  0   -2466080.444   6432791.479     43371.220
10 0 59630  81582.000000  0   -2280510.000   6445158.709   -859639.275
10 0 59630  81702.000000  0   -2055912.281   6341369.212  -1747528.493
10 0 59630  81822.000000  0   -1798259.940   6122693.653  -2604703.352
10 0 59630  81942.000000  0   -1514058.680   5792526.553  -3416142.302
10 0 59630  82062.000000  0   -1210193.031   5356324.415  -4167659.841
10 0 59630  82182.000000  0    -893767.963   4821503.683  -4846153.452
10 0 59630  82302.000000  0    -571950.013   4197303.247  -5439826.457
10 0 59630  82422.000000  0    -251811.247   3494615.201  -5938385.993
10 0 59630  82542.000000  0      59820.795   2725785.869  -6333212.063
10 0 59630  82662.000000  0     356503.091   1904393.023  -6617494.357
10 0 59630  82782.000000  0     632304.896   1045005.781  -6786338.785
10 0 59630  82902.000000  0     881921.980    162928.323  -6836843.277
10 0 59630  83022.000000  0    1100775.135   -726067.973  -6768141.944
10 0 59630  83142.000000  0    1285091.438  -1606020.306  -6581416.799
10 0 59630  83262.000000  0    1431967.626  -2461052.688  -6279878.991
10 0 59630  83382.000000  0    1539415.832  -3275655.349  -5868721.087
10 0 59630  83502.000000  0    1606389.630  -4034964.001  -5355038.438
10 0 59630  83622.000000  0    1632790.084  -4725032.080  -4747716.421
10 0 59630  83742.000000  0    1619452.553  -5333089.097  -4057287.674
10 0 59630  83862.000000  0    1568113.210  -5847784.677  -3295760.653
10 0 59630  83982.000000  0    1481355.058  -6259410.816  -2476418.202
10 0 59630  84102.000000  0    1362536.010  -6560096.461  -1613589.990
10 0 59630  84222.000000  0    1215699.722  -6743969.804   -722402.325
10 0 59630  84342.000000  0    1045469.657  -6807283.755    181490.533
10 0 59630  84462.000000  0     856931.292  -6748499.335   1082187.651
10 0 59630  84582.000000  0     655503.467  -6568326.041   1963829.215
10 0 59630  84702.000000  0     446803.514  -6269716.624   2810886.009
10 0 59630  84822.000000  0     236508.329  -5857814.517   3608442.197
10 0 59630  84942.000000  0      30214.982  -5339857.491   4342463.095
10 0 59630  85062.000000  0    -166694.372  -4725042.260   5000045.103
10 0 59630  85182.000000  0    -349180.455  -4024351.025   5569643.102
10 0 59630  85302.000000  0    -512664.319  -3250345.649   6041271.412
10 0 59630  85422.000000  0    -653132.421  -2416932.415   6406674.152
10 0 59630  85542.000000  0    -767227.020  -1539106.305   6659461.761
10 0 59630  85662.000000  0    -852320.265   -632679.202   6795217.128
10 0 59630  85782.000000  0    -906571.251    286006.434   6811569.333
10 0 59630  85902.000000  0    -928964.404   1200372.573   6708232.527
10 0 59630  86022.000000  0    -919327.934   2093904.391   6487010.458
10 0 59630  86142.000000  0    -878332.964   2950448.103   6151766.891
10 0 59630  86262.000000  0    -807473.697   3754503.777   5708362.519
99
